{
    "links": {
        "self": "http://www.neowsapp.com/rest/v1/neo/3719126?api_key=iIulBulltgU6a56xZRHN4H3l9WmuAYTsLGpBGhQ2"
    },
    "id": "3719126",
    "neo_reference_id": "3719126",
    "name": "(2015 JF)",
    "designation": "2015 JF",
    "nasa_jpl_url": "http://ssd.jpl.nasa.gov/sbdb.cgi?sstr=3719126",
    "absolute_magnitude_h": 26.3,
    "estimated_diameter": {
        "kilometers": {
            "estimated_diameter_min": 0.0146067964,
            "estimated_diameter_max": 0.0326617897
        },
        "meters": {
            "estimated_diameter_min": 14.6067964271,
            "estimated_diameter_max": 32.6617897446
        },
        "miles": {
            "estimated_diameter_min": 0.0090762397,
            "estimated_diameter_max": 0.020295089
        },
        "feet": {
            "estimated_diameter_min": 47.92256199,
            "estimated_diameter_max": 107.1581062656
        }
    },
    "is_potentially_hazardous_asteroid": false,
    "close_approach_data": [
        {
            "close_approach_date": "1909-08-18",
            "close_approach_date_full": "1909-Aug-18 19:44",
            "epoch_date_close_approach": -1905135360000,
            "relative_velocity": {
                "kilometers_per_second": "18.5847026808",
                "kilometers_per_hour": "66904.92965079",
                "miles_per_hour": "41572.1214266256"
            },
            "miss_distance": {
                "astronomical": "0.3809978797",
                "lunar": "148.2081752033",
                "kilometers": "56996471.277636239",
                "miles": "35415964.9918045382"
            },
            "orbiting_body": "Earth"
        },
        {
            "close_approach_date": "2015-05-18",
            "close_approach_date_full": "2015-May-18 07:18",
            "epoch_date_close_approach": 1431933480000,
            "relative_velocity": {
                "kilometers_per_second": "7.8049790289",
                "kilometers_per_hour": "28097.9245040719",
                "miles_per_hour": "17458.9575897662"
            },
            "miss_distance": {
                "astronomical": "0.0232073671",
                "lunar": "9.0276658019",
                "kilometers": "3471772.686468077",
                "miles": "2157259.5139183826"
            },
            "orbiting_body": "Earth"
        }
    ],
    "orbital_data": {
        "orbit_id": "12",
        "orbit_determination_date": "2018-02-10 07:06:43",
        "first_observation_date": "2015-04-19",
        "last_observation_date": "2015-05-17",
        "data_arc_in_days": 28,
        "observations_used": 59,
        "orbit_uncertainty": "7",
        "minimum_orbit_intersection": ".00996907",
        "jupiter_tisserand_invariant": "4.075",
        "epoch_osculation": "2459000.5",
        "eccentricity": ".4231691738846154",
        "semi_major_axis": "1.713903819617571",
        "inclination": "1.823216358801973",
        "ascending_node_longitude": "224.619841926866",
        "orbital_period": "819.5549861111841",
        "perihelion_distance": ".9886325561523164",
        "perihelion_argument": "41.66095356423767",
        "aphelion_distance": "2.439175083082826",
        "perihelion_time": "2458824.593915815082",
        "mean_anomaly": "77.26899522270641",
        "mean_motion": ".4392627780940143",
        "equinox": "J2000",
        "orbit_class": {
            "orbit_class_type": "APO",
            "orbit_class_description": "Near-Earth asteroid orbits which cross the Earth’s orbit similar to that of 1862 Apollo",
            "orbit_class_range": "a (semi-major axis) > 1.0 AU; q (perihelion) < 1.017 AU"
        }
    },
    "is_sentry_object": false
}